ONEWEB-0120             
1 47266U 20100J   25078.55055319  .00000009  00000+0 -11049-4 0  9991
2 47266  87.8806  81.1589 0001732  86.8204 273.3122 13.12440832205091
ONEWEB-0121             
1 47267U 20100K   25078.53903488  .00000141  00000+0  35570-3 0  9999
2 47267  87.8800  81.1377 0001961  86.6435 273.4918 13.12441672205007
ONEWEB-0122             
1 47268U 20100L   25078.45781120  .00000676  00000+0  18440-2 0  9997
2 47268  87.8799  81.1592 0001901  83.5567 276.5778 13.12439780204903
ONEWEB-0123             
1 47269U 20100M   25078.52932490  .00000464  00000+0  12548-2 0  9992
2 47269  87.8804  81.1686 0001785  88.6578 271.4755 13.12444076205053
ONEWEB-0124             
1 47270U 20100N   25078.51797508  .00000282  00000+0  74703-3 0  9992
2 47270  87.8805  81.1683 0002081  92.4384 267.6982 13.12445161204932
ONEWEB-0125             
1 47271U 20100P   25078.57148110 -.00000332  00000+0 -95876-3 0  9990
2 47271  87.8805  81.1195 0001915  98.2422 261.8923 13.12441620205009
ONEWEB-0126             
1 47272U 20100Q   25078.52039544  .00000321  00000+0  85645-3 0  9995
2 47272  87.8823  81.1259 0001727  86.3206 273.8120 13.12446154205065
ONEWEB-0127             
1 47273U 20100R   25078.55852722 -.00000290  00000+0 -84102-3 0  9994
2 47273  87.8805  81.1552 0001790  85.0501 275.0832 13.12442548205096
